{"fetched_at":"2026-03-29T02:12:04Z","count":15717,"tles":[{"name":"STARLINK-6130","line1":"1 57104U 23090D   26087.59733977  .00001731  00000+0  14313-3 0  9990","line2":"2 57104  43.0027 172.2507 0001570 278.3182  81.7482 15.02548254153255","category":"Starlink"}]}