{
  "norad_id": 57104,
  "name": "STARLINK-6130",
  "history": [
    {
      "epoch": "2026-03-28T14:20:10.155264Z",
      "apogee_km": 560.1309528648708,
      "perigee_km": 557.9526787167124,
      "latitude_deg": -1.8427546881200584e-05,
      "longitude_deg": 131.192866006846,
      "height_km": 558.663879999428,
      "semi_major_axis_km": 6937.178815790791,
      "eccentricity": 0.000157,
      "inclination_deg": 43.0027,
      "raan_deg": 172.2507,
      "arg_perigee_deg": 278.3182,
      "mean_anomaly_deg": 81.7482,
      "mean_motion_rev_day": 15.02548254
    }
  ]
}